0 FENGYUN 1C DEB
1 37600U 99025EKU 13280.52358888  .00002749  00000-0  22811-2 0   597
2 37600 098.9231 028.7885 0465219 093.3919 264.0503 13.48799588279908
0 FENGYUN 1C DEB
1 37600U 99025EKU 13282.52805894  .00001897  00000-0  15778-2 0   602
2 37600 098.9099 030.5603 0466343 088.4056 276.9490 13.48796544280172
0 FENGYUN 1C DEB
1 37600U 99025EKU 13286.53369268  .00002050  00000-0  17036-2 0   620
2 37600 098.9175 034.1725 0466156 078.3258 287.0186 13.48815608280714
0 FENGYUN 1C DEB
1 37600U 99025EKU 13288.53645987  .00002042  00000-0  16958-2 0   631
2 37600 098.9185 035.9724 0466398 073.2543 291.9212 13.48823700280987
0 FENGYUN 1C DEB
1 37600U 99025EKU 13290.53921356  .00002540  00000-0  20885-2 0   649
2 37600 098.9148 037.7766 0464175 068.2544 296.7777 13.48833811281252
0 FENGYUN 1C DEB
1 37600U 99025EKU 13290.53921469  .00002060  00000-0  17136-2 0   646
2 37600 098.9169 037.7660 0465783 068.0827 296.9284 13.48832642281252
0 FENGYUN 1C DEB
1 37600U 99025EKU 13292.09689525  .00002093  00000-0  17420-2 0   656
2 37600 098.9188 039.1657 0465440 064.1610 300.7012 13.48840133281462
